[{"OBJECT_NAME":"STARLINK-33941","OBJECT_ID":"2025-089Q","EPOCH":"2025-05-08T06:00:02.000160","MEAN_MOTION":15.84125164,"ECCENTRICITY":0.0001947,"INCLINATION":43.0056,"RA_OF_ASC_NODE":336.3128,"ARG_OF_PERICENTER":272.5142,"MEAN_ANOMALY":124.768,"EPHEMERIS_TYPE":0,"CLASSIFICATION_TYPE":"U","NORAD_CAT_ID":63765,"ELEMENT_SET_NO":999,"REV_AT_EPOCH":216,"BSTAR":-0.0053936,"MEAN_MOTION_DOT":-0.01126008,"MEAN_MOTION_DDOT":0},{"OBJECT_NAME":"STARLINK-33824","OBJECT_ID":"2025-089R","EPOCH":"2025-05-08T06:00:02.000160","MEAN_MOTION":15.84154568,"ECCENTRICITY":0.000196,"INCLINATION":43.0056,"RA_OF_ASC_NODE":336.3077,"ARG_OF_PERICENTER":270.9578,"MEAN_ANOMALY":128.4621,"EPHEMERIS_TYPE":0,"CLASSIFICATION_TYPE":"U","NORAD_CAT_ID":63766,"ELEMENT_SET_NO":999,"REV_AT_EPOCH":217,"BSTAR":-0.0054381,"MEAN_MOTION_DOT":-0.01135796,"MEAN_MOTION_DDOT":0},{"OBJECT_NAME":"STARLINK-33808","OBJECT_ID":"2025-089S","EPOCH":"2025-05-08T06:00:02.000160","MEAN_MOTION":15.841893,"ECCENTRICITY":0.0002104,"INCLINATION":43.0056,"RA_OF_ASC_NODE":336.3029,"ARG_OF_PERICENTER":274.0783,"MEAN_ANOMALY":127.2639,"EPHEMERIS_TYPE":0,"CLASSIFICATION_TYPE":"U","NORAD_CAT_ID":63767,"ELEMENT_SET_NO":999,"REV_AT_EPOCH":217,"BSTAR":-0.0054709,"MEAN_MOTION_DOT":-0.01143737,"MEAN_MOTION_DDOT":0},{"OBJECT_NAME":"STARLINK-33844","OBJECT_ID":"2025-089T","EPOCH":"2025-05-08T06:00:02.000160","MEAN_MOTION":15.84227677,"ECCENTRICITY":0.0001874,"INCLINATION":43.0057,"RA_OF_ASC_NODE":336.2981,"ARG_OF_PERICENTER":263.7675,"MEAN_ANOMALY":139.4132,"EPHEMERIS_TYPE":0,"CLASSIFICATION_TYPE":"U","NORAD_CAT_ID":63768,"ELEMENT_SET_NO":999,"REV_AT_EPOCH":217,"BSTAR":-0.005512,"MEAN_MOTION_DOT":-0.01153216,"MEAN_MOTION_DDOT":0},{"OBJECT_NAME":"STARLINK-33907","OBJECT_ID":"2025-089U","EPOCH":"2025-05-08T06:00:02.000160","MEAN_MOTION":15.84256955,"ECCENTRICITY":0.0001822,"INCLINATION":43.0057,"RA_OF_ASC_NODE":336.2932,"ARG_OF_PERICENTER":269.5311,"MEAN_ANOMALY":135.5885,"EPHEMERIS_TYPE":0,"CLASSIFICATION_TYPE":"U","NORAD_CAT_ID":63769,"ELEMENT_SET_NO":999,"REV_AT_EPOCH":212,"BSTAR":-0.0055171,"MEAN_MOTION_DOT":-0.01155606,"MEAN_MOTION_DDOT":0},{"OBJECT_NAME":"STARLINK-33884","OBJECT_ID":"2025-089V","EPOCH":"2025-05-07T22:00:01.999584","MEAN_MOTION":15.85063806,"ECCENTRICITY":0.0001691,"INCLINATION":43.0054,"RA_OF_ASC_NODE":338.3415,"ARG_OF_PERICENTER":265.9865,"MEAN_ANOMALY":37.3741,"EPHEMERIS_TYPE":0,"CLASSIFICATION_TYPE":"U","NORAD_CAT_ID":63770,"ELEMENT_SET_NO":999,"REV_AT_EPOCH":208,"BSTAR":-0.0051522,"MEAN_MOTION_DOT":-0.01105622,"MEAN_MOTION_DDOT":0},{"OBJECT_NAME":"STARLINK-33841","OBJECT_ID":"2025-089W","EPOCH":"2025-05-07T22:00:01.999584","MEAN_MOTION":15.85097974,"ECCENTRICITY":0.0001589,"INCLINATION":43.0053,"RA_OF_ASC_NODE":338.3364,"ARG_OF_PERICENTER":273.938,"MEAN_ANOMALY":31.3204,"EPHEMERIS_TYPE":0,"CLASSIFICATION_TYPE":"U","NORAD_CAT_ID":63771,"ELEMENT_SET_NO":999,"REV_AT_EPOCH":208,"BSTAR":-0.0051604,"MEAN_MOTION_DOT":-0.01108739,"MEAN_MOTION_DDOT":0},{"OBJECT_NAME":"BIOMASS","OBJECT_ID":"2025-090A","EPOCH":"2025-05-07T23:23:25.999008","MEAN_MOTION":14.68203328,"ECCENTRICITY":0.0001032,"INCLINATION":98.0728,"RA_OF_ASC_NODE":316.058,"ARG_OF_PERICENTER":35.1341,"MEAN_ANOMALY":324.9931,"EPHEMERIS_TYPE":0,"CLASSIFICATION_TYPE":"U","NORAD_CAT_ID":63772,"ELEMENT_SET_NO":999,"REV_AT_EPOCH":125,"BSTAR":0.00019815,"MEAN_MOTION_DOT":1.092e-5,"MEAN_MOTION_DDOT":0},{"OBJECT_NAME":"STARLINK-33769","OBJECT_ID":"2025-089X","EPOCH":"2025-05-07T22:00:01.999584","MEAN_MOTION":15.85131823,"ECCENTRICITY":0.0001657,"INCLINATION":43.0053,"RA_OF_ASC_NODE":338.3304,"ARG_OF_PERICENTER":273.5337,"MEAN_ANOMALY":33.9128,"EPHEMERIS_TYPE":0,"CLASSIFICATION_TYPE":"U","NORAD_CAT_ID":63773,"ELEMENT_SET_NO":999,"REV_AT_EPOCH":212,"BSTAR":-0.0051987,"MEAN_MOTION_DOT":-0.01138129,"MEAN_MOTION_DDOT":0},{"OBJECT_NAME":"STARLINK-33914","OBJECT_ID":"2025-089Y","EPOCH":"2025-05-07T22:00:01.999584","MEAN_MOTION":15.8516937,"ECCENTRICITY":0.000159,"INCLINATION":43.0053,"RA_OF_ASC_NODE":338.3259,"ARG_OF_PERICENTER":270.6179,"MEAN_ANOMALY":38.8276,"EPHEMERIS_TYPE":0,"CLASSIFICATION_TYPE":"U","NORAD_CAT_ID":63774,"ELEMENT_SET_NO":999,"REV_AT_EPOCH":213,"BSTAR":-0.0052244,"MEAN_MOTION_DOT":-0.01145018,"MEAN_MOTION_DDOT":0},{"OBJECT_NAME":"STARLINK-33932","OBJECT_ID":"2025-091A","EPOCH":"2025-05-07T22:00:01.999584","MEAN_MOTION":15.92781099,"ECCENTRICITY":0.0001803,"INCLINATION":43.0006,"RA_OF_ASC_NODE":348.8229,"ARG_OF_PERICENTER":265.6688,"MEAN_ANOMALY":338.5863,"EPHEMERIS_TYPE":0,"CLASSIFICATION_TYPE":"U","NORAD_CAT_ID":63775,"ELEMENT_SET_NO":999,"REV_AT_EPOCH":208,"BSTAR":-0.0022056,"MEAN_MOTION_DOT":-0.00792727,"MEAN_MOTION_DDOT":0.0001995},{"OBJECT_NAME":"STARLINK-33930","OBJECT_ID":"2025-091B","EPOCH":"2025-05-08T06:00:02.000160","MEAN_MOTION":15.92360173,"ECCENTRICITY":0.000229,"INCLINATION":43.0005,"RA_OF_ASC_NODE":346.7427,"ARG_OF_PERICENTER":269.9281,"MEAN_ANOMALY":88.9793,"EPHEMERIS_TYPE":0,"CLASSIFICATION_TYPE":"U","NORAD_CAT_ID":63776,"ELEMENT_SET_NO":999,"REV_AT_EPOCH":207,"BSTAR":-0.0023832,"MEAN_MOTION_DOT":-0.00837571,"MEAN_MOTION_DDOT":0.00021956},{"OBJECT_NAME":"STARLINK-33911","OBJECT_ID":"2025-091C","EPOCH":"2025-05-08T06:00:02.000160","MEAN_MOTION":15.92452685,"ECCENTRICITY":0.0002022,"INCLINATION":43.0006,"RA_OF_ASC_NODE":346.7385,"ARG_OF_PERICENTER":268.8473,"MEAN_ANOMALY":91.709,"EPHEMERIS_TYPE":0,"CLASSIFICATION_TYPE":"U","NORAD_CAT_ID":63777,"ELEMENT_SET_NO":999,"REV_AT_EPOCH":207,"BSTAR":-0.002394,"MEAN_MOTION_DOT":-0.00845343,"MEAN_MOTION_DDOT":0.00022348},{"OBJECT_NAME":"STARLINK-33938","OBJECT_ID":"2025-091D","EPOCH":"2025-05-07T22:00:01.999584","MEAN_MOTION":15.93014895,"ECCENTRICITY":0.0001875,"INCLINATION":43.0005,"RA_OF_ASC_NODE":348.8131,"ARG_OF_PERICENTER":267.0703,"MEAN_ANOMALY":341.184,"EPHEMERIS_TYPE":0,"CLASSIFICATION_TYPE":"U","NORAD_CAT_ID":63778,"ELEMENT_SET_NO":999,"REV_AT_EPOCH":212,"BSTAR":-0.0022045,"MEAN_MOTION_DOT":-0.00802085,"MEAN_MOTION_DDOT":0.00020427},{"OBJECT_NAME":"STARLINK-33881","OBJECT_ID":"2025-091E","EPOCH":"2025-05-08T06:00:02.000160","MEAN_MOTION":15.92625849,"ECCENTRICITY":0.0002066,"INCLINATION":43.0006,"RA_OF_ASC_NODE":346.7306,"ARG_OF_PERICENTER":262.8003,"MEAN_ANOMALY":100.8433,"EPHEMERIS_TYPE":0,"CLASSIFICATION_TYPE":"U","NORAD_CAT_ID":63779,"ELEMENT_SET_NO":999,"REV_AT_EPOCH":207,"BSTAR":-0.0024082,"MEAN_MOTION_DOT":-0.00858019,"MEAN_MOTION_DDOT":0.00023001},{"OBJECT_NAME":"STARLINK-33846","OBJECT_ID":"2025-091F","EPOCH":"2025-05-07T22:00:01.999584","MEAN_MOTION":15.93219822,"ECCENTRICITY":0.0001929,"INCLINATION":43.0006,"RA_OF_ASC_NODE":348.8048,"ARG_OF_PERICENTER":265.2385,"MEAN_ANOMALY":346.2948,"EPHEMERIS_TYPE":0,"CLASSIFICATION_TYPE":"U","NORAD_CAT_ID":63780,"ELEMENT_SET_NO":999,"REV_AT_EPOCH":208,"BSTAR":-0.0022049,"MEAN_MOTION_DOT":-0.00810896,"MEAN_MOTION_DDOT":0.00020879}]
